TITAN 34D TRANSTAGE DEB 
1 22668U 88077D   26064.89451481  .00000005  00000+0  88035-3 0  9993
2 22668  26.6812 210.4922 7291484 346.9636   1.1770  2.16286267 52949
TITAN 34D TRANSTAGE DEB 
1 22669U 88077E   26065.16942100 -.00000055  00000+0  76658-3 0  9992
2 22669  26.6653 240.7154 7325174 305.2655   6.3760  2.11759104 51933
HGS-4 (GALAXY 4)        
1 22694U 93039A   26064.76553027 -.00000128  00000+0  00000+0 0  9990
2 22694  14.5741 355.9269 0015847  31.6344 128.1362  1.00265266117967
HISPASAT 1B             
1 22723U 93048A   26064.72808745 -.00000339  00000+0  00000+0 0  9993
2 22723  13.6400  13.8541 0008452 339.1196 214.6391  0.99728487118803
INSAT-2B                
1 22724U 93048B   26065.00378120  .00000096  00000+0  00000+0 0  9994
2 22724  14.4196   3.3727 0016832 232.1681 319.5472  0.99976249119545
IABS R/B                
1 22738U 93046C   26064.89763492 -.00000087  00000+0  00000+0 0  9994
2 22738  12.5593 337.6510 0083168 139.2094 221.4150  1.02137918 25271
SL-6 R/B(2)             
1 22744U 93051D   26065.06330072 -.00000640  00000+0  00000+0 0  9996
2 22744  68.2670 304.5368 6248773  74.2819 342.9954  2.05613949243113
UFO 2 (USA 95)          
1 22787U 93056A   26065.51587652  .00000123  00000+0  00000+0 0  9991
2 22787  11.8590   4.1097 0008853 336.9992  37.4977  1.00273898117529
ACTS                    
1 22796U 93058B   26065.32961166 -.00000112  00000+0  00000+0 0  9997
2 22796  14.5780 356.3630 0051167  76.7157 103.7941  1.00271978125875
TOS R/B                 
1 22797U 93058D   26065.63490975  .00000296  00000+0  67656-3 0  9993
2 22797  15.0692 100.5948 7359219  20.5836 358.0231  2.13405299246200
RADUGA 30               
1 22836U 93062A   26065.81149012 -.00000166  00000+0  00000+0 0  9998
2 22836  14.0622 347.9041 0005966 320.5548 229.0140  1.00277093 44970
SL-12 R/B(2)            
1 22839U 93062D   26065.07267240 -.00000070  00000+0  00000+0 0  9997
2 22839  14.0007 347.6402 0008132  84.0665 112.9817  1.00281311117822
GORIZONT 28             
1 22880U 93069A   26061.49616104  .00000023  00000+0  00000+0 0  9996
2 22880  14.1605 348.8184 0030054 171.9962  60.4794  0.99648611118062
SL-12 R/B(2)            
1 22883U 93069D   26065.54612330  .00000057  00000+0  00000+0 0  9993
2 22883  13.9090 347.4568 0003832  32.9872 161.8196  1.00470180118037
GORIZONT 29             
1 22907U 93072A   26065.69142034 -.00000376  00000+0  00000+0 0  9994
2 22907  14.0349 348.0885 0012065 354.8257 191.0115  1.00139552118146
SOLIDARIDAD 1           
1 22911U 93073A   26065.35183672 -.00000106  00000+0  00000+0 0  9997
2 22911  14.3500   3.1595 0009099 269.1115 271.6992  1.00279359116836
IABS R/B                
1 22916U 93074B   26064.96825625  .00000046  00000+0  00000+0 0  9992
2 22916  13.8602 342.7930 0059656 100.3005 260.3712  0.99999342 24876
