[{"OBJECT_NAME":"TITAN 34D TRANSTAGE DEB","OBJECT_ID":"1988-077D","EPOCH":"2026-03-05T21:28:06.079584","MEAN_MOTION":2.16286267,"ECCENTRICITY":0.72914843,"INCLINATION":26.6812,"RA_OF_ASC_NODE":210.4922,"ARG_OF_PERICENTER":346.9636,"MEAN_ANOMALY":1.177,"EPHEMERIS_TYPE":0,"CLASSIFICATION_TYPE":"U","NORAD_CAT_ID":22668,"ELEMENT_SET_NO":999,"REV_AT_EPOCH":5294,"BSTAR":0.00088035042,"MEAN_MOTION_DOT":5.0e-8,"MEAN_MOTION_DDOT":0},{"OBJECT_NAME":"TITAN 34D TRANSTAGE DEB","OBJECT_ID":"1988-077E","EPOCH":"2026-03-06T04:03:57.974400","MEAN_MOTION":2.11759104,"ECCENTRICITY":0.73251743,"INCLINATION":26.6653,"RA_OF_ASC_NODE":240.7154,"ARG_OF_PERICENTER":305.2655,"MEAN_ANOMALY":6.376,"EPHEMERIS_TYPE":0,"CLASSIFICATION_TYPE":"U","NORAD_CAT_ID":22669,"ELEMENT_SET_NO":999,"REV_AT_EPOCH":5193,"BSTAR":0.00076657796,"MEAN_MOTION_DOT":-5.5e-7,"MEAN_MOTION_DDOT":0},{"OBJECT_NAME":"HGS-4 (GALAXY 4)","OBJECT_ID":"1993-039A","EPOCH":"2026-03-05T18:22:21.815328","MEAN_MOTION":1.00265266,"ECCENTRICITY":0.00158473,"INCLINATION":14.5741,"RA_OF_ASC_NODE":355.9269,"ARG_OF_PERICENTER":31.6344,"MEAN_ANOMALY":128.1362,"EPHEMERIS_TYPE":0,"CLASSIFICATION_TYPE":"U","NORAD_CAT_ID":22694,"ELEMENT_SET_NO":999,"REV_AT_EPOCH":11796,"BSTAR":0,"MEAN_MOTION_DOT":-1.28e-6,"MEAN_MOTION_DDOT":0},{"OBJECT_NAME":"HISPASAT 1B","OBJECT_ID":"1993-048A","EPOCH":"2026-03-05T17:28:26.755680","MEAN_MOTION":0.99728487,"ECCENTRICITY":0.00084526,"INCLINATION":13.64,"RA_OF_ASC_NODE":13.8541,"ARG_OF_PERICENTER":339.1196,"MEAN_ANOMALY":214.6391,"EPHEMERIS_TYPE":0,"CLASSIFICATION_TYPE":"U","NORAD_CAT_ID":22723,"ELEMENT_SET_NO":999,"REV_AT_EPOCH":11880,"BSTAR":0,"MEAN_MOTION_DOT":-3.39e-6,"MEAN_MOTION_DDOT":0},{"OBJECT_NAME":"INSAT-2B","OBJECT_ID":"1993-048B","EPOCH":"2026-03-06T00:05:26.695680","MEAN_MOTION":0.99976249,"ECCENTRICITY":0.0016832,"INCLINATION":14.4196,"RA_OF_ASC_NODE":3.3727,"ARG_OF_PERICENTER":232.1681,"MEAN_ANOMALY":319.5472,"EPHEMERIS_TYPE":0,"CLASSIFICATION_TYPE":"U","NORAD_CAT_ID":22724,"ELEMENT_SET_NO":999,"REV_AT_EPOCH":11954,"BSTAR":0,"MEAN_MOTION_DOT":9.6e-7,"MEAN_MOTION_DDOT":0},{"OBJECT_NAME":"IABS R/B","OBJECT_ID":"1993-046C","EPOCH":"2026-03-05T21:32:35.657088","MEAN_MOTION":1.02137918,"ECCENTRICITY":0.00831687,"INCLINATION":12.5593,"RA_OF_ASC_NODE":337.651,"ARG_OF_PERICENTER":139.2094,"MEAN_ANOMALY":221.415,"EPHEMERIS_TYPE":0,"CLASSIFICATION_TYPE":"U","NORAD_CAT_ID":22738,"ELEMENT_SET_NO":999,"REV_AT_EPOCH":2527,"BSTAR":0,"MEAN_MOTION_DOT":-8.7e-7,"MEAN_MOTION_DDOT":0},{"OBJECT_NAME":"SL-6 R/B(2)","OBJECT_ID":"1993-051D","EPOCH":"2026-03-06T01:31:09.182208","MEAN_MOTION":2.05613949,"ECCENTRICITY":0.62487735,"INCLINATION":68.267,"RA_OF_ASC_NODE":304.5368,"ARG_OF_PERICENTER":74.2819,"MEAN_ANOMALY":342.9954,"EPHEMERIS_TYPE":0,"CLASSIFICATION_TYPE":"U","NORAD_CAT_ID":22744,"ELEMENT_SET_NO":999,"REV_AT_EPOCH":24311,"BSTAR":0,"MEAN_MOTION_DOT":-6.4e-6,"MEAN_MOTION_DDOT":0},{"OBJECT_NAME":"UFO 2 (USA 95)","OBJECT_ID":"1993-056A","EPOCH":"2026-03-06T12:22:51.731328","MEAN_MOTION":1.00273898,"ECCENTRICITY":0.00088537,"INCLINATION":11.859,"RA_OF_ASC_NODE":4.1097,"ARG_OF_PERICENTER":336.9992,"MEAN_ANOMALY":37.4977,"EPHEMERIS_TYPE":0,"CLASSIFICATION_TYPE":"U","NORAD_CAT_ID":22787,"ELEMENT_SET_NO":999,"REV_AT_EPOCH":11752,"BSTAR":0,"MEAN_MOTION_DOT":1.23e-6,"MEAN_MOTION_DDOT":0},{"OBJECT_NAME":"ACTS","OBJECT_ID":"1993-058B","EPOCH":"2026-03-06T07:54:38.447424","MEAN_MOTION":1.00271978,"ECCENTRICITY":0.00511679,"INCLINATION":14.578,"RA_OF_ASC_NODE":356.363,"ARG_OF_PERICENTER":76.7157,"MEAN_ANOMALY":103.7941,"EPHEMERIS_TYPE":0,"CLASSIFICATION_TYPE":"U","NORAD_CAT_ID":22796,"ELEMENT_SET_NO":999,"REV_AT_EPOCH":12587,"BSTAR":0,"MEAN_MOTION_DOT":-1.12e-6,"MEAN_MOTION_DDOT":0},{"OBJECT_NAME":"TOS R/B","OBJECT_ID":"1993-058D","EPOCH":"2026-03-06T15:14:16.202400","MEAN_MOTION":2.13405299,"ECCENTRICITY":0.7359219,"INCLINATION":15.0692,"RA_OF_ASC_NODE":100.5948,"ARG_OF_PERICENTER":20.5836,"MEAN_ANOMALY":358.0231,"EPHEMERIS_TYPE":0,"CLASSIFICATION_TYPE":"U","NORAD_CAT_ID":22797,"ELEMENT_SET_NO":999,"REV_AT_EPOCH":24620,"BSTAR":0.00067656,"MEAN_MOTION_DOT":2.96e-6,"MEAN_MOTION_DDOT":0},{"OBJECT_NAME":"RADUGA 30","OBJECT_ID":"1993-062A","EPOCH":"2026-03-06T19:28:32.746368","MEAN_MOTION":1.00277093,"ECCENTRICITY":0.0005966,"INCLINATION":14.0622,"RA_OF_ASC_NODE":347.9041,"ARG_OF_PERICENTER":320.5548,"MEAN_ANOMALY":229.014,"EPHEMERIS_TYPE":0,"CLASSIFICATION_TYPE":"U","NORAD_CAT_ID":22836,"ELEMENT_SET_NO":999,"REV_AT_EPOCH":4497,"BSTAR":0,"MEAN_MOTION_DOT":-1.66e-6,"MEAN_MOTION_DDOT":0},{"OBJECT_NAME":"SL-12 R/B(2)","OBJECT_ID":"1993-062D","EPOCH":"2026-03-06T01:44:38.895360","MEAN_MOTION":1.00281311,"ECCENTRICITY":0.00081323,"INCLINATION":14.0007,"RA_OF_ASC_NODE":347.6402,"ARG_OF_PERICENTER":84.0665,"MEAN_ANOMALY":112.9817,"EPHEMERIS_TYPE":0,"CLASSIFICATION_TYPE":"U","NORAD_CAT_ID":22839,"ELEMENT_SET_NO":999,"REV_AT_EPOCH":11782,"BSTAR":0,"MEAN_MOTION_DOT":-7.0e-7,"MEAN_MOTION_DDOT":0},{"OBJECT_NAME":"GORIZONT 28","OBJECT_ID":"1993-069A","EPOCH":"2026-03-02T11:54:28.313856","MEAN_MOTION":0.99648611,"ECCENTRICITY":0.00300547,"INCLINATION":14.1605,"RA_OF_ASC_NODE":348.8184,"ARG_OF_PERICENTER":171.9962,"MEAN_ANOMALY":60.4794,"EPHEMERIS_TYPE":0,"CLASSIFICATION_TYPE":"U","NORAD_CAT_ID":22880,"ELEMENT_SET_NO":999,"REV_AT_EPOCH":11806,"BSTAR":0,"MEAN_MOTION_DOT":2.3e-7,"MEAN_MOTION_DDOT":0},{"OBJECT_NAME":"SL-12 R/B(2)","OBJECT_ID":"1993-069D","EPOCH":"2026-03-06T13:06:25.053120","MEAN_MOTION":1.0047018,"ECCENTRICITY":0.00038329,"INCLINATION":13.909,"RA_OF_ASC_NODE":347.4568,"ARG_OF_PERICENTER":32.9872,"MEAN_ANOMALY":161.8196,"EPHEMERIS_TYPE":0,"CLASSIFICATION_TYPE":"U","NORAD_CAT_ID":22883,"ELEMENT_SET_NO":999,"REV_AT_EPOCH":11803,"BSTAR":0,"MEAN_MOTION_DOT":5.7e-7,"MEAN_MOTION_DDOT":0},{"OBJECT_NAME":"GORIZONT 29","OBJECT_ID":"1993-072A","EPOCH":"2026-03-06T16:35:38.717376","MEAN_MOTION":1.00139552,"ECCENTRICITY":0.0012065,"INCLINATION":14.0349,"RA_OF_ASC_NODE":348.0885,"ARG_OF_PERICENTER":354.8257,"MEAN_ANOMALY":191.0115,"EPHEMERIS_TYPE":0,"CLASSIFICATION_TYPE":"U","NORAD_CAT_ID":22907,"ELEMENT_SET_NO":999,"REV_AT_EPOCH":11814,"BSTAR":0,"MEAN_MOTION_DOT":-3.76e-6,"MEAN_MOTION_DDOT":0},{"OBJECT_NAME":"SOLIDARIDAD 1","OBJECT_ID":"1993-073A","EPOCH":"2026-03-06T08:26:38.692608","MEAN_MOTION":1.00279359,"ECCENTRICITY":0.0009099,"INCLINATION":14.35,"RA_OF_ASC_NODE":3.1595,"ARG_OF_PERICENTER":269.1115,"MEAN_ANOMALY":271.6992,"EPHEMERIS_TYPE":0,"CLASSIFICATION_TYPE":"U","NORAD_CAT_ID":22911,"ELEMENT_SET_NO":999,"REV_AT_EPOCH":11683,"BSTAR":0,"MEAN_MOTION_DOT":-1.06e-6,"MEAN_MOTION_DDOT":0},{"OBJECT_NAME":"IABS R/B","OBJECT_ID":"1993-074B","EPOCH":"2026-03-05T23:14:17.340000","MEAN_MOTION":0.99999342,"ECCENTRICITY":0.00596561,"INCLINATION":13.8602,"RA_OF_ASC_NODE":342.793,"ARG_OF_PERICENTER":100.3005,"MEAN_ANOMALY":260.3712,"EPHEMERIS_TYPE":0,"CLASSIFICATION_TYPE":"U","NORAD_CAT_ID":22916,"ELEMENT_SET_NO":999,"REV_AT_EPOCH":2487,"BSTAR":0,"MEAN_MOTION_DOT":4.6e-7,"MEAN_MOTION_DDOT":0}]
